{"type":"FeatureCollection","features":[{"type":"Feature","id":1,"geometry":{"type":"LineString","coordinates":[[80.35595182869001,7.0637800149095673],[80.355899847555364,7.063858140446615],[80.35590176765966,7.0641063574189289]]},"properties":{"OBJECTID":1,"Entity":"LWPolyline","Handle":"18D1C","Layer":"DN","LyrFrzn":0,"LyrOn":1,"Color":4,"Linetype":"Continuous","Elevation":52.329999999999991,"LineWt":25,"RefName":"","DocUpdate":1783359710000,"DocId":1.1061215596273316e+19,"t0":null,"t00":null,"Shape_Length":37.813130345185911}},{"type":"Feature","id":2,"geometry":{"type":"LineString","coordinates":[[80.355926129751509,7.0640957898789782],[80.355906524016646,7.0638622834070626],[80.355971175091511,7.0637887161477364]]},"properties":{"OBJECTID":2,"Entity":"LWPolyline","Handle":"18D1D","Layer":"DN","LyrFrzn":0,"LyrOn":1,"Color":4,"Linetype":"Continuous","Elevation":52.329999999999991,"LineWt":25,"RefName":"","DocUpdate":1783359710000,"DocId":1.1061215596273316e+19,"t0":null,"t00":null,"Shape_Length":36.728381899199448}},{"type":"Feature","id":3,"geometry":{"type":"LineString","coordinates":[[80.355455115801163,7.0636777038303107],[80.355449896926388,7.0636671587486317],[80.355426319240479,7.0636474524587047]]},"properties":{"OBJECTID":3,"Entity":"LWPolyline","Handle":"18D1E","Layer":"DN","LyrFrzn":0,"LyrOn":1,"Color":4,"Linetype":"Continuous","Elevation":52.329999999999991,"LineWt":25,"RefName":"","DocUpdate":1783359710000,"DocId":1.1061215596273316e+19,"t0":null,"t00":null,"Shape_Length":4.6956578519149215}},{"type":"Feature","id":4,"geometry":{"type":"LineString","coordinates":[[80.355374973676788,7.0637046477980867],[80.355362057224994,7.0636688825991545]]},"properties":{"OBJECTID":4,"Entity":"LWPolyline","Handle":"18D1F","Layer":"DN","LyrFrzn":0,"LyrOn":1,"Color":4,"Linetype":"Continuous","Elevation":52.329999999999991,"LineWt":25,"RefName":"","DocUpdate":1783359710000,"DocId":1.1061215596273316e+19,"t0":null,"t00":null,"Shape_Length":4.2034423984143698}},{"type":"Feature","id":5,"geometry":{"type":"LineString","coordinates":[[80.355348930823368,7.0636735680532077],[80.355367621569243,7.0637045652727677]]},"properties":{"OBJECTID":5,"Entity":"LWPolyline","Handle":"18D20","Layer":"DN","LyrFrzn":0,"LyrOn":1,"Color":4,"Linetype":"Continuous","Elevation":52.329999999999991,"LineWt":25,"RefName":"","DocUpdate":1783359710000,"DocId":1.1061215596273316e+19,"t0":null,"t00":null,"Shape_Length":4.0005670853686022}},{"type":"Feature","id":6,"geometry":{"type":"LineString","coordinates":[[80.355429008101012,7.0637392125201872],[80.355483752642257,7.0637056031806136],[80.355527275740556,7.0636741311279874],[80.355599603856575,7.0636341057599399]]},"properties":{"OBJECTID":6,"Entity":"LWPolyline","Handle":"18D21","Layer":"DN","LyrFrzn":0,"LyrOn":1,"Color":4,"Linetype":"Continuous","Elevation":52.329999999999991,"LineWt":25,"RefName":"","DocUpdate":1783359710000,"DocId":1.1061215596273316e+19,"t0":null,"t00":null,"Shape_Length":22.16236380761292}},{"type":"Feature","id":7,"geometry":{"type":"LineString","coordinates":[[80.355429008101012,7.0637392125201872],[80.355359624210408,7.0637650406805319],[80.355309121531945,7.0637562601681108],[80.355227414486222,7.0637494264937972]]},"properties":{"OBJECTID":7,"Entity":"LWPolyline","Handle":"18D22","Layer":"DN","LyrFrzn":0,"LyrOn":1,"Color":4,"Linetype":"Continuous","Elevation":52.329999999999991,"LineWt":25,"RefName":"","DocUpdate":1783359710000,"DocId":1.1061215596273316e+19,"t0":null,"t00":null,"Shape_Length":22.894702199808229}},{"type":"Feature","id":8,"geometry":{"type":"LineString","coordinates":[[80.354533252947405,7.0636191526190411],[80.354553177355498,7.0636621918783682],[80.354541523812088,7.0638061601005786],[80.354534584391857,7.0638806482411516],[80.354495939937195,7.0639981665939384],[80.354478009826821,7.0640389726174382],[80.354456400085326,7.0640757845341042],[80.354399708276574,7.064109716679881],[80.354384036997487,7.0641213273419678],[80.354380217831348,7.0641461244839574],[80.354382171480069,7.0642325015129845],[80.354408972494412,7.0642652919344036],[80.354429695775508,7.0642866044001735],[80.354436994252751,7.0643775748357323],[80.354439313738609,7.0644613201658695]]},"properties":{"OBJECTID":8,"Entity":"LWPolyline","Handle":"18D23","Layer":"DN","LyrFrzn":0,"LyrOn":1,"Color":4,"Linetype":"Continuous","Elevation":32.038999999999994,"LineWt":25,"RefName":"","DocUpdate":1783359710000,"DocId":1.1061215596273316e+19,"t0":null,"t00":null,"Shape_Length":101.89624220892631}},{"type":"Feature","id":9,"geometry":{"type":"LineString","coordinates":[[80.35280933441922,7.0649076626323062],[80.352835410475379,7.0648998058287429],[80.352918154034853,7.0649492179610078],[80.352949322513609,7.0650252333282593],[80.352963841680648,7.0652106022797732],[80.352997141339145,7.0652842054871883],[80.353060639768515,7.0653498273459254],[80.35309601216909,7.0653979254628343],[80.353154303793318,7.0654118005338651],[80.353240715925764,7.0654341629871524],[80.353312672354576,7.0654664552899922],[80.353467792190401,7.0654807178826537],[80.353567844993975,7.0654997885843933],[80.353645694276665,7.0654811273533626],[80.353827073509407,7.0654553009347918],[80.353903274426884,7.0654173888108929],[80.353972090738594,7.0654158198152848],[80.353993352315499,7.0654537765433316],[80.354009759724718,7.0656033012812074],[80.353947384199728,7.0658113399504066],[80.354026087489132,7.065868896195977],[80.354155486470191,7.0659007071505773],[80.354216537097514,7.0659556881168264],[80.354367640653706,7.0659738072402254],[80.354409623533357,7.0660867969257959],[80.354326830127832,7.066438411799588]]},"properties":{"OBJECTID":9,"Entity":"LWPolyline","Handle":"18D24","Layer":"DN","LyrFrzn":0,"LyrOn":1,"Color":4,"Linetype":"Continuous","Elevation":18.827999999999996,"LineWt":25,"RefName":"","DocUpdate":1783359710000,"DocId":1.1061215596273316e+19,"t0":null,"t00":null,"Shape_Length":318.7134679258445}},{"type":"Feature","id":10,"geometry":{"type":"LineString","coordinates":[[80.352809388162498,7.0648690190514447],[80.352832112868313,7.0648620187161528],[80.352903621063518,7.0648714618300827],[80.352984588457858,7.0650261415752986],[80.353074225107065,7.0652755927011128],[80.353099256228944,7.0653114199843037],[80.35310831086899,7.0653764416666709],[80.353144329771737,7.0653828505375511],[80.353242442946694,7.0654163369455274],[80.353338463344159,7.065453948741494],[80.353482939441463,7.065461825003081],[80.353569644426187,7.0654819716862791],[80.353642406666481,7.0654556510134983],[80.35380672087355,7.0654148398904928],[80.353900843674381,7.0653942925932363],[80.35398628280285,7.0653936059401374],[80.354013938873209,7.0654301061757732],[80.354033593799045,7.0656209637444585],[80.354021645071512,7.065709962753087],[80.354044498156071,7.0657559539804735],[80.354077705176849,7.0658051254337977],[80.354139247818367,7.0658317860116497],[80.354177340599165,7.0658901362405695],[80.354217911068517,7.0658986408204152],[80.354335106789435,7.0659288790187311],[80.354566973165191,7.0660740780879809],[80.354507107723038,7.0663062551983815],[80.354350003323617,7.0664495154364806]]},"properties":{"OBJECTID":10,"Entity":"LWPolyline","Handle":"18D25","Layer":"DN","LyrFrzn":0,"LyrOn":1,"Color":4,"Linetype":"Continuous","Elevation":-63.990000000000002,"LineWt":25,"RefName":"","DocUpdate":1783359710000,"DocId":1.1061215596273316e+19,"t0":null,"t00":null,"Shape_Length":333.00728123680608}},{"type":"Feature","id":11,"geometry":{"type":"LineString","coordinates":[[80.355926129751509,7.0640957898789782],[80.356059879575866,7.0646082326496309],[80.355949295955767,7.0647399977737635],[80.355719326966948,7.0650955163332112],[80.355517628498887,7.0653705970696592],[80.355403192412425,7.0655241777804871],[80.355440258701066,7.0659974797006653],[80.355408707414156,7.0660484285052014]]},"properties":{"OBJECTID":11,"Entity":"LWPolyline","Handle":"18D4E","Layer":"DN","LyrFrzn":0,"LyrOn":1,"Color":4,"Linetype":"Continuous","Elevation":-63.990000000000002,"LineWt":25,"RefName":"","DocUpdate":1783359710000,"DocId":1.1061215596273316e+19,"t0":null,"t00":null,"Shape_Length":242.32425361198574}},{"type":"Feature","id":12,"geometry":{"type":"LineString","coordinates":[[80.355397254096843,7.0660669249446126],[80.355396436457767,7.0660682444396299],[80.355355174357783,7.0661733218392655]]},"properties":{"OBJECTID":12,"Entity":"LWPolyline","Handle":"18D4F","Layer":"DN","LyrFrzn":0,"LyrOn":1,"Color":4,"Linetype":"Continuous","Elevation":-63.990000000000002,"LineWt":25,"RefName":"","DocUpdate":1783359710000,"DocId":1.1061215596273316e+19,"t0":null,"t00":null,"Shape_Length":12.650137466723205}},{"type":"Feature","id":13,"geometry":{"type":"LineString","coordinates":[[80.355901912393193,7.0641064571180285],[80.356015564604334,7.064531412342717],[80.355918726432066,7.0647411495409562],[80.355705569681916,7.0650915173563034],[80.35551903479616,7.0653489262816818],[80.355382074048933,7.0655206624941878],[80.355418782737999,7.0659769169963376],[80.355389525099412,7.0660356054842488]]},"properties":{"OBJECTID":13,"Entity":"LWPolyline","Handle":"18D50","Layer":"DN","LyrFrzn":0,"LyrOn":1,"Color":4,"Linetype":"Continuous","Elevation":-63.990000000000002,"LineWt":25,"RefName":"","DocUpdate":1783359710000,"DocId":1.1061215596273316e+19,"t0":null,"t00":null,"Shape_Length":236.74909202018068}},{"type":"Feature","id":14,"geometry":{"type":"LineString","coordinates":[[80.35537974531448,7.0660552213415277],[80.355334068767604,7.0661468439644564]]},"properties":{"OBJECTID":14,"Entity":"LWPolyline","Handle":"18D51","Layer":"DN","LyrFrzn":0,"LyrOn":1,"Color":4,"Linetype":"Continuous","Elevation":-63.990000000000002,"LineWt":25,"RefName":"","DocUpdate":1783359710000,"DocId":1.1061215596273316e+19,"t0":null,"t00":null,"Shape_Length":11.315895315187088}},{"type":"Feature","id":15,"geometry":{"type":"LineString","coordinates":[[80.331821313269856,7.061713585011665],[80.331347450210416,7.0616955055227546],[80.330931216285222,7.0614463699630914],[80.330569857645102,7.0611935137730697],[80.329918910898272,7.0605148031208529],[80.329916000162711,7.0600144108850937],[80.329877471881446,7.0594558240625789],[80.330121321747896,7.059047641489232],[80.330280438545827,7.0586221781483767],[80.330389639144556,7.0581333619157007],[80.330551752449708,7.0577896906712585],[80.330503536844816,7.0576710009354908],[80.330437025842656,7.0575941015556554],[80.330357383152887,7.0575318729598004],[80.330308134008291,7.0574645592524758],[80.330088188746032,7.0575200714684714],[80.330002560888218,7.0575902851180059],[80.329660533113298,7.0578557541082665],[80.329132368461345,7.0580004442761286],[80.32874317241631,7.0578411752351338],[80.328490175205715,7.0573526255050636],[80.3281083059791,7.0571172500458124],[80.327696117102235,7.0569088481516449],[80.327523451047711,7.0563110655640884],[80.327452227109092,7.0558232882826735],[80.327584310340583,7.055421291289278],[80.32749182094301,7.0549634550954563],[80.327380244265228,7.054776137361908],[80.327307573772302,7.0546640514342007],[80.327271759316062,7.0546047619423042],[80.327236170587369,7.0545835463957927]]},"properties":{"OBJECTID":15,"Entity":"LWPolyline","Handle":"1EE2F","Layer":"DN","LyrFrzn":0,"LyrOn":1,"Color":5,"Linetype":"Continuous","Elevation":-1.9030000000000058,"LineWt":25,"RefName":"","DocUpdate":1783359710000,"DocId":1.1061215596273316e+19,"t0":null,"t00":null,"Shape_Length":1247.9887646188031}},{"type":"Feature","id":16,"geometry":{"type":"LineString","coordinates":[[80.327202791003771,7.0545636483168916],[80.326991310452726,7.0544375799549321],[80.326872739152961,7.0543791571005938],[80.326789305958783,7.0543592999080555],[80.326733441450841,7.05435297808752],[80.326562600675544,7.0544821795101047],[80.326289384532757,7.0549990518097232],[80.326142463597876,7.0551665854913033],[80.326020108772369,7.0553702635427538],[80.325947709339815,7.0554027222236293],[80.325834481277312,7.0553997185130415],[80.325608478767421,7.0552617131451001],[80.325460358073855,7.0550318834519121],[80.325350409281413,7.054890228491117],[80.325183386562529,7.0547896563323711],[80.324709046050103,7.0546697621843242],[80.324490597327284,7.0545492247451058],[80.324267568508461,7.0543529078629197],[80.323999465965386,7.0540830685287856],[80.323916862266429,7.0539534198394627],[80.323800847821104,7.0538679725110853],[80.323638689699493,7.053816106952274],[80.323599225933606,7.05369512280219],[80.32346669581419,7.053560408714791],[80.323425660977747,7.0534489379642356],[80.32331392146736,7.0533377627682512],[80.323257617286032,7.0532789498730706],[80.32302604413772,7.0530814623106561],[80.322767525720295,7.0528280173691789],[80.322590899400637,7.0525082983824818],[80.322484147654791,7.0524542334045623],[80.322486047756271,7.0523741217015958],[80.322434983072924,7.0522800576416769],[80.322245503935193,7.0520823594594795],[80.322252842258166,7.0520668483265423],[80.322191836118094,7.0519167702067129],[80.321998452945238,7.0516145565819031],[80.32198711014712,7.0515135128713844],[80.321913982167288,7.0514059573023555],[80.321859621425901,7.0512437951979168],[80.321876033768106,7.0511772725572976],[80.321864605435678,7.0510354523910861],[80.321875269877324,7.0508994171194423],[80.321855072449836,7.0507608134055104],[80.321546182263305,7.0502995146507272]]},"properties":{"OBJECTID":16,"Entity":"LWPolyline","Handle":"1EE30","Layer":"DN","LyrFrzn":0,"LyrOn":1,"Color":5,"Linetype":"Continuous","Elevation":-1.9030000000000058,"LineWt":25,"RefName":"","DocUpdate":1783359710000,"DocId":1.1061215596273316e+19,"t0":null,"t00":null,"Shape_Length":998.8183898871838}},{"type":"Feature","id":17,"geometry":{"type":"LineString","coordinates":[[80.321756837869131,7.050273245318798],[80.321792219007634,7.0503309515865551],[80.321937089009907,7.0505089477408358],[80.321970689065708,7.0505835842646487],[80.322021717055279,7.0507587577457205],[80.322003286689267,7.0510300727033135],[80.321976187161781,7.0512358507298458],[80.322034096663259,7.0513921385124849],[80.322056421222527,7.0514876081482942],[80.322103540508863,7.0515613597544649],[80.32211404161248,7.0515936848985579],[80.322255257738647,7.051875136135993],[80.32238549341514,7.0519620245281844],[80.322423098545741,7.0520408457822308],[80.32254043394515,7.0521887713821405],[80.322607017822165,7.0523137748656666],[80.322609901152163,7.0523421090112306],[80.322674895915696,7.0524142402466925],[80.322716656674061,7.0524621234454541],[80.322770305316283,7.0525912147344796],[80.322918414248278,7.0526843430575612],[80.323223097539213,7.0530455123047471],[80.323352302572928,7.0532065435311919],[80.323400569371586,7.0532385163287277],[80.323477039320679,7.0533520645641454],[80.323511594834414,7.0533737962696961],[80.323592318561737,7.0534698298507053],[80.323703146218847,7.0535855082417918],[80.323804662167134,7.0537164506888699],[80.32389801631733,7.0537690125737953],[80.32398869189602,7.0538767561164546],[80.324082922041384,7.0539683769680064],[80.324323875653192,7.0542474755713931],[80.324343505828523,7.0543095006618461],[80.324374272025338,7.0543220277303584],[80.324569500676915,7.0543772243459726],[80.324604930449595,7.0544018065250125],[80.32484422158079,7.05446636535825],[80.324946099333587,7.054610414807148],[80.32522949465725,7.0546931369213874],[80.325408811460093,7.0547947760814766],[80.325572653881025,7.0549094633331322],[80.325667918381612,7.0550374928629287],[80.325740943489464,7.0550857104380986],[80.325852723819992,7.0550754877988284],[80.325981100571298,7.0550402244746406],[80.326072274518211,7.055004213642504],[80.326172375178274,7.0548184376304528],[80.326361134542694,7.0545827262928817],[80.32648267176819,7.0544182584525172],[80.326559745734443,7.0543024446181475],[80.326719336019551,7.0541830230656437],[80.326860347679713,7.0541634080227587],[80.327007782002212,7.0542293439185118],[80.327115513111281,7.0543269626418716],[80.3272020915241,7.0544071928713441],[80.327262025788372,7.0544481089552917]]},"properties":{"OBJECTID":17,"Entity":"LWPolyline","Handle":"1EE31","Layer":"DN","LyrFrzn":0,"LyrOn":1,"Color":5,"Linetype":"Continuous","Elevation":-20.427,"LineWt":25,"RefName":"","DocUpdate":1783359710000,"DocId":1.1061215596273316e+19,"t0":null,"t00":null,"Shape_Length":960.33631075206699}},{"type":"Feature","id":18,"geometry":{"type":"LineString","coordinates":[[80.327295011345569,7.0544706287043972],[80.327325930956661,7.0544917371167992],[80.327338559403671,7.0545058117584487],[80.327429537994973,7.0546113119106879],[80.327578025634281,7.0549137665849511],[80.327739744718997,7.0553898654856511],[80.327653129141581,7.0558434909475798],[80.327673407657116,7.0562722780641156],[80.327851142373831,7.0566806052332005],[80.328240538494228,7.0570392977063907],[80.328612226496844,7.0572838846574308],[80.329598056105894,7.0575805504310329],[80.330104925335363,7.0571896964028298],[80.330432090371119,7.0572860373574731],[80.330629454231683,7.0576022108145748],[80.330694442723839,7.0577935315326927],[80.330589983392215,7.0582533643689844],[80.330530568439372,7.0587136235858079],[80.330404728706398,7.0590808556613416],[80.33029748560044,7.0595997232816279],[80.3301852700572,7.0599936042734672],[80.330081861632095,7.0604270169388821],[80.330301502557035,7.0607477723854997],[80.330634071213197,7.0610738546771223],[80.330994759778349,7.0613519192115204],[80.331438595389457,7.0614595618414731],[80.331821464348408,7.0616083173687487]]},"properties":{"OBJECTID":18,"Entity":"LWPolyline","Handle":"1EE32","Layer":"DN","LyrFrzn":0,"LyrOn":1,"Color":5,"Linetype":"Continuous","Elevation":-20.427,"LineWt":25,"RefName":"","DocUpdate":1783359710000,"DocId":1.1061215596273316e+19,"t0":null,"t00":null,"Shape_Length":1195.4841222121852}},{"type":"Feature","id":19,"geometry":{"type":"LineString","coordinates":[[80.322671467996031,7.0523432023222243],[80.32269093054424,7.0523022913929747],[80.322741438939488,7.0522744869293135],[80.322780074351172,7.052223780567985],[80.322826997220162,7.0521960161220045],[80.322875236534315,7.052159542928643]]},"properties":{"OBJECTID":19,"Entity":"LWPolyline","Handle":"1EE33","Layer":"DN","LyrFrzn":0,"LyrOn":1,"Color":5,"Linetype":"Continuous","Elevation":-23.460000000000001,"LineWt":25,"RefName":"","DocUpdate":1783359710000,"DocId":1.1061215596273316e+19,"t0":null,"t00":null,"Shape_Length":31.12710585724971}},{"type":"Feature","id":20,"geometry":{"type":"LineString","coordinates":[[80.322934873381726,7.0520930467166014],[80.3228892424127,7.0520666767620428],[80.322779573293829,7.0520513759014545],[80.322663654137529,7.0520067500476289],[80.32260359695934,7.0519574744713696]]},"properties":{"OBJECTID":20,"Entity":"LWPolyline","Handle":"1EE34","Layer":"DN","LyrFrzn":0,"LyrOn":1,"Color":5,"Linetype":"Continuous","Elevation":-17.671000000000006,"LineWt":25,"RefName":"","DocUpdate":1783359710000,"DocId":1.1061215596273316e+19,"t0":null,"t00":null,"Shape_Length":40.356281708120427}},{"type":"Feature","id":21,"geometry":{"type":"LineString","coordinates":[[80.322955598320149,7.0521118005842167],[80.322970307104967,7.0521271989601422],[80.32301416920923,7.0522680801939464],[80.323003553186751,7.0523771876416239]]},"properties":{"OBJECTID":21,"Entity":"LWPolyline","Handle":"1EE35","Layer":"DN","LyrFrzn":0,"LyrOn":1,"Color":5,"Linetype":"Continuous","Elevation":-18.555,"LineWt":25,"RefName":"","DocUpdate":1783359710000,"DocId":1.1061215596273316e+19,"t0":null,"t00":null,"Shape_Length":30.783322673875091}},{"type":"Feature","id":22,"geometry":{"type":"LineString","coordinates":[[80.322934873381726,7.0520930467166014],[80.323007360704679,7.0520309832392138],[80.323026044380342,7.0519714830138387],[80.323088825549235,7.0518907449424306],[80.323166481873841,7.0517793918863099],[80.323174416338674,7.051665052342412]]},"properties":{"OBJECTID":22,"Entity":"LWPolyline","Handle":"1EE36","Layer":"DN","LyrFrzn":0,"LyrOn":1,"Color":5,"Linetype":"Continuous","Elevation":-17.671000000000006,"LineWt":25,"RefName":"","DocUpdate":1783359710000,"DocId":1.1061215596273316e+19,"t0":null,"t00":null,"Shape_Length":56.415605228119503}},{"type":"Feature","id":23,"geometry":{"type":"LineString","coordinates":[[80.322182601366407,7.0514929289899637],[80.322212493636755,7.0515023071378371],[80.322234352217805,7.0515072775997103]]},"properties":{"OBJECTID":23,"Entity":"LWPolyline","Handle":"1EE37","Layer":"DN","LyrFrzn":0,"LyrOn":1,"Color":5,"Linetype":"Continuous","Elevation":-20.963999999999999,"LineWt":25,"RefName":"","DocUpdate":1783359710000,"DocId":1.1061215596273316e+19,"t0":null,"t00":null,"Shape_Length":5.9364197097663851}},{"type":"Feature","id":24,"geometry":{"type":"LineString","coordinates":[[80.322189161764754,7.0515267318486563],[80.3222148358482,7.0515167016507068],[80.322243404971786,7.0515207049530257]]},"properties":{"OBJECTID":24,"Entity":"LWPolyline","Handle":"1EE38","Layer":"DN","LyrFrzn":0,"LyrOn":1,"Color":5,"Linetype":"Continuous","Elevation":-20.813000000000002,"LineWt":25,"RefName":"","DocUpdate":1783359710000,"DocId":1.1061215596273316e+19,"t0":null,"t00":null,"Shape_Length":6.2309694189587086}},{"type":"Feature","id":25,"geometry":{"type":"LineString","coordinates":[[80.322299039887355,7.051497801490191],[80.322307432102548,7.0515047152489272],[80.322323468502006,7.051528618174923],[80.322354063254025,7.0515841827720669],[80.322366216704339,7.051607202667709]]},"properties":{"OBJECTID":25,"Entity":"LWPolyline","Handle":"1EE39","Layer":"DN","LyrFrzn":0,"LyrOn":1,"Color":5,"Linetype":"Continuous","Elevation":-18.251000000000005,"LineWt":25,"RefName":"","DocUpdate":1783359710000,"DocId":1.1061215596273316e+19,"t0":null,"t00":null,"Shape_Length":14.27083792097805}},{"type":"Feature","id":26,"geometry":{"type":"LineString","coordinates":[[80.322282270657638,7.0514548299516324],[80.322295299395293,7.0514798863169093],[80.322299039887355,7.051497801490191]]},"properties":{"OBJECTID":26,"Entity":"LWPolyline","Handle":"1EE3A","Layer":"DN","LyrFrzn":0,"LyrOn":1,"Color":5,"Linetype":"Continuous","Elevation":-17.583999999999996,"LineWt":25,"RefName":"","DocUpdate":1783359710000,"DocId":1.1061215596273316e+19,"t0":null,"t00":null,"Shape_Length":5.1447788771411727}},{"type":"Feature","id":27,"geometry":{"type":"LineString","coordinates":[[80.322025235674147,7.0503189790711334],[80.322076240228895,7.0503670294911176],[80.322160849385313,7.0504554708180187],[80.322207782421231,7.0505264994949908],[80.322217726739424,7.0505868191158827]]},"properties":{"OBJECTID":27,"Entity":"LWPolyline","Handle":"1EE3B","Layer":"DN","LyrFrzn":0,"LyrOn":1,"Color":5,"Linetype":"Continuous","Elevation":-15.396000000000008,"LineWt":25,"RefName":"","DocUpdate":1783359710000,"DocId":1.1061215596273316e+19,"t0":null,"t00":null,"Shape_Length":37.43557686912586}},{"type":"Feature","id":28,"geometry":{"type":"LineString","coordinates":[[80.322126421505658,7.0506139492674151],[80.322105057959234,7.0506110328117773],[80.322086541170805,7.0506179889371765],[80.322079277196607,7.0506321976509119],[80.322067916416273,7.0506369299629732],[80.322037545274725,7.0506331320826439]]},"properties":{"OBJECTID":28,"Entity":"LWPolyline","Handle":"1EE3C","Layer":"DN","LyrFrzn":0,"LyrOn":1,"Color":5,"Linetype":"Continuous","Elevation":-17.256000000000007,"LineWt":25,"RefName":"","DocUpdate":1783359710000,"DocId":1.1061215596273316e+19,"t0":null,"t00":null,"Shape_Length":11.070279996814099}},{"type":"Feature","id":29,"geometry":{"type":"LineString","coordinates":[[80.32577191824889,7.0547225941402605],[80.325768609350064,7.0547316889663723],[80.325750856055151,7.0547615581535039],[80.325744511701416,7.0547784908989373],[80.325731203983693,7.0548083936402328]]},"properties":{"OBJECTID":29,"Entity":"LWPolyline","Handle":"1EE3D","Layer":"DN","LyrFrzn":0,"LyrOn":1,"Color":5,"Linetype":"Continuous","Elevation":-12.538000000000004,"LineWt":25,"RefName":"","DocUpdate":1783359710000,"DocId":1.1061215596273316e+19,"t0":null,"t00":null,"Shape_Length":10.526983141795139}},{"type":"Feature","id":30,"geometry":{"type":"LineString","coordinates":[[80.325776243781633,7.0547242466362734],[80.325774030076417,7.0547335963130502],[80.325764859942041,7.0547636407098917],[80.325755082575427,7.0547815815756421],[80.325742339371615,7.0548155645770549]]},"properties":{"OBJECTID":30,"Entity":"LWPolyline","Handle":"1EE3E","Layer":"DN","LyrFrzn":0,"LyrOn":1,"Color":5,"Linetype":"Continuous","Elevation":-12.546999999999997,"LineWt":25,"RefName":"","DocUpdate":1783359710000,"DocId":1.1061215596273316e+19,"t0":null,"t00":null,"Shape_Length":10.804984489312247}},{"type":"Feature","id":31,"geometry":{"type":"LineString","coordinates":[[80.326958570655293,7.053308747407562],[80.326961046702777,7.053374781917789]]},"properties":{"OBJECTID":31,"Entity":"LWPolyline","Handle":"1EE3F","Layer":"DN","LyrFrzn":0,"LyrOn":1,"Color":5,"Linetype":"Continuous","Elevation":-17.362000000000002,"LineWt":25,"RefName":"","DocUpdate":1783359710000,"DocId":1.1061215596273316e+19,"t0":null,"t00":null,"Shape_Length":7.3055222955562442}},{"type":"Feature","id":32,"geometry":{"type":"LineString","coordinates":[[80.326750962219919,7.0541455576626184],[80.3268551362262,7.053928836907593],[80.326957422541881,7.0538655855857888],[80.326970387509306,7.0537030234304749],[80.326980912393992,7.0536000031933987],[80.326977820468059,7.0534902064677238],[80.326973569866126,7.0534053098779106],[80.326961046702777,7.053374781917789]]},"properties":{"OBJECTID":32,"Entity":"LWPolyline","Handle":"1EE46","Layer":"DN","LyrFrzn":0,"LyrOn":1,"Color":5,"Linetype":"Continuous","Elevation":-22.282000000000004,"LineWt":25,"RefName":"","DocUpdate":1783359710000,"DocId":1.1061215596273316e+19,"t0":null,"t00":null,"Shape_Length":94.530529634618517}},{"type":"Feature","id":33,"geometry":{"type":"LineString","coordinates":[[80.326971743112551,7.0533034567784894],[80.326990736893507,7.053348701776609],[80.327017602562563,7.0535292944134556],[80.327000501779935,7.0536278096451861],[80.326996847666663,7.0538446572273612],[80.326961238112546,7.0539382341646117],[80.32691420791906,7.0539588259259061],[80.326763026092124,7.0541461675241601]]},"properties":{"OBJECTID":33,"Entity":"LWPolyline","Handle":"1EE47","Layer":"DN","LyrFrzn":0,"LyrOn":1,"Color":5,"Linetype":"Continuous","Elevation":-15.106999999999999,"LineWt":25,"RefName":"","DocUpdate":1783359710000,"DocId":1.1061215596273316e+19,"t0":null,"t00":null,"Shape_Length":103.98221512130672}},{"type":"Feature","id":34,"geometry":{"type":"LineString","coordinates":[[80.342258110664474,7.0562458320068533],[80.342203837798564,7.0562628838343562],[80.342015868697445,7.0563027622559709],[80.34184718489648,7.0563428667853518],[80.341439937735387,7.0564155689317047],[80.341193525809231,7.0564086814654132],[80.341141483317458,7.0564210046843252]]},"properties":{"OBJECTID":34,"Entity":"LWPolyline","Handle":"32DF0","Layer":"DN","LyrFrzn":0,"LyrOn":1,"Color":5,"Linetype":"Continuous","Elevation":-1.9030000000000058,"LineWt":25,"RefName":"","DocUpdate":1783359710000,"DocId":1.1061215596273316e+19,"t0":null,"t00":null,"Shape_Length":125.48097700027907}},{"type":"Feature","id":35,"geometry":{"type":"LineString","coordinates":[[80.34111762424638,7.0564274791466648],[80.341107345483834,7.056422589191107],[80.340991832732328,7.0564724379306316],[80.340866940036335,7.0566052555118466],[80.340793268531996,7.0566861074410197],[80.340744544599204,7.0567392434302736],[80.340655255407924,7.0568321669204197],[80.340561021419674,7.056938669531597],[80.340482383592828,7.0571058161395275],[80.340428028492852,7.057228810470412],[80.340349203965275,7.0573422997234996],[80.340260488653811,7.0575477210313995],[80.340174092657008,7.0577520872854667],[80.340111586227749,7.0579022513343448],[80.34010632054472,7.0579314332545868],[80.340009895952207,7.0581587152607383],[80.339981653527985,7.0582751342815895],[80.339962223288168,7.058338786109557],[80.339915566108189,7.0584731160207506],[80.339965363828043,7.0585505694686743],[80.339953312055798,7.0586658988016797],[80.339817523525042,7.0588132907569792],[80.339788192627736,7.0589118526835106],[80.339753160341473,7.0589636872801558],[80.339713843777872,7.0591379718305127],[80.339680966086007,7.0591772545145925],[80.339660411429108,7.0592931145186499],[80.339631074142673,7.0593386615930465],[80.339621481290848,7.0593991614424372],[80.339628213822053,7.0594402278359887],[80.339627286753668,7.0595321092391625],[80.339547215620627,7.0598154954248358],[80.339482735842523,7.0599330118551631],[80.339443382063692,7.059948269930981],[80.339434599772687,7.0601841332034301],[80.339441140807622,7.0602389120838707],[80.339376314159097,7.0603774855828805],[80.3393363611019,7.0605087765984953],[80.339320659277163,7.0605736819153933],[80.339302395560907,7.0606063278713602],[80.33928455526619,7.0607553338576601],[80.339213314812071,7.0607813016748224],[80.339161602118139,7.0608664627978364],[80.339065127966506,7.0610704164464853],[80.33903178318873,7.0612089711538522],[80.338945069551514,7.0612407241161907],[80.338763384610161,7.0612723786436131],[80.338547381924172,7.0615919613215503],[80.338211760694122,7.0618482828574622],[80.337873259681146,7.0622320128383826],[80.337655134110562,7.0626492093993054],[80.337433142243228,7.0630661560982206],[80.336998161709161,7.0632677015223413],[80.336420253366725,7.0632302912129168],[80.336100088210685,7.0630347998041687]]},"properties":{"OBJECTID":35,"Entity":"LWPolyline","Handle":"32DF1","Layer":"DN","LyrFrzn":0,"LyrOn":1,"Color":5,"Linetype":"Continuous","Elevation":-1.9030000000000058,"LineWt":25,"RefName":"","DocUpdate":1783359710000,"DocId":1.1061215596273316e+19,"t0":null,"t00":null,"Shape_Length":1042.8533040548991}},{"type":"Feature","id":36,"geometry":{"type":"LineString","coordinates":[[80.336079883679943,7.063022463040225],[80.336031324600199,7.062992812916959],[80.33591348400455,7.0628577247535853],[80.335838274695121,7.0628156743921959],[80.335743493430115,7.062790094859638],[80.335612267052952,7.062790685856779],[80.335477365852114,7.062733309002609],[80.335371568541476,7.062711883607693],[80.33530135077126,7.0626680945268099],[80.335176588045485,7.062663213135993],[80.334948928958028,7.0625710873817997],[80.334885421280177,7.0625204604843832],[80.334444271442266,7.0624453880449725],[80.334026197673296,7.062252695360967],[80.333939965537098,7.0622368007770957]]},"properties":{"OBJECTID":36,"Entity":"LWPolyline","Handle":"32DF2","Layer":"DN","LyrFrzn":0,"LyrOn":1,"Color":5,"Linetype":"Continuous","Elevation":-1.9030000000000058,"LineWt":25,"RefName":"","DocUpdate":1783359710000,"DocId":1.1061215596273316e+19,"t0":null,"t00":null,"Shape_Length":258.05872999107703}},{"type":"Feature","id":37,"geometry":{"type":"LineString","coordinates":[[80.333930034580433,7.0622349702916329],[80.333616838814663,7.0621772424298115],[80.333062512466441,7.0620181024437532],[80.332762118775676,7.0619080975954516],[80.332279253381046,7.0618099431294841],[80.331892259509388,7.0617408977218172],[80.331825087834503,7.0617137288117826],[80.331821313269856,7.061713585011665]]},"properties":{"OBJECTID":37,"Entity":"LWPolyline","Handle":"32DF3","Layer":"DN","LyrFrzn":0,"LyrOn":1,"Color":5,"Linetype":"Continuous","Elevation":-1.9030000000000058,"LineWt":25,"RefName":"","DocUpdate":1783359710000,"DocId":1.1061215596273316e+19,"t0":null,"t00":null,"Shape_Length":240.47003727121967}},{"type":"Feature","id":38,"geometry":{"type":"LineString","coordinates":[[80.331821464348408,7.0616083173687487],[80.331852194976165,7.0616202569104427],[80.332367760301707,7.0616834350321298],[80.332699301778447,7.0617485474129742],[80.333195432634113,7.0618651638620058],[80.333961006141379,7.0621102249526944]]},"properties":{"OBJECTID":38,"Entity":"LWPolyline","Handle":"32DF4","Layer":"DN","LyrFrzn":0,"LyrOn":1,"Color":5,"Linetype":"Continuous","Elevation":-20.427,"LineWt":25,"RefName":"","DocUpdate":1783359710000,"DocId":1.1061215596273316e+19,"t0":null,"t00":null,"Shape_Length":243.40527787463105}},{"type":"Feature","id":39,"geometry":{"type":"LineString","coordinates":[[80.333970626554347,7.0621133041558597],[80.334051024428703,7.0621390398779988],[80.334445653381806,7.0622640941756236],[80.334901180105604,7.062435158212419],[80.33497960521467,7.0624380288603454],[80.335222363613838,7.062526178071578],[80.335436967596564,7.0626047080305083],[80.335641707849163,7.0626603572117697],[80.335803006365424,7.0626009057271775],[80.335892292604001,7.0626257628384836],[80.33606968549573,7.0626582168105951],[80.33619814870282,7.0627730042024073],[80.336220618147593,7.0627939408822211]]},"properties":{"OBJECTID":39,"Entity":"LWPolyline","Handle":"32DF5","Layer":"DN","LyrFrzn":0,"LyrOn":1,"Color":5,"Linetype":"Continuous","Elevation":-20.427,"LineWt":25,"RefName":"","DocUpdate":1783359710000,"DocId":1.1061215596273316e+19,"t0":null,"t00":null,"Shape_Length":266.2378829097031}},{"type":"Feature","id":40,"geometry":{"type":"LineString","coordinates":[[80.336235609534214,7.0628079092378853],[80.336556489979017,7.0631068984364767],[80.336957374719034,7.0630430023040036],[80.337145177557588,7.0629185338786939],[80.337234196721226,7.0627813157956094],[80.337428376390605,7.0625404426473111],[80.337820992550675,7.0621083067914752],[80.338538116570618,7.0612242274798378],[80.338605940096613,7.0609967697054881],[80.338718296645155,7.0608049684977212],[80.338817811108811,7.0606088253755432],[80.338973884274637,7.0604919272881137],[80.339009814687543,7.0604198776791698],[80.339038558448479,7.0603077741056319],[80.33908253067554,7.0602154833331943],[80.339162397068193,7.0600766326839208],[80.339212858891003,7.0599923652685632],[80.339298180444288,7.0597801283088844],[80.339352432177165,7.0597623676832946],[80.339410064997011,7.0597036182912936],[80.339428027764825,7.0596341573071442],[80.339493972938598,7.0594218476375881],[80.339531125031826,7.0593245993410765],[80.33954139626465,7.0592071328095845],[80.339579292162227,7.0590578295406932],[80.339624960485978,7.0589249817196116],[80.339633778112656,7.0588109503591898],[80.339708099015652,7.0586556201322699],[80.339822926521606,7.058508388509348],[80.339822477415737,7.0583141931333726],[80.339847500405583,7.0580864393332456],[80.33988472295411,7.0579457191056063],[80.339974946903936,7.0577940203983438],[80.339993519747836,7.0577283954661052],[80.340070189418796,7.0575510520712612],[80.340158563678429,7.0573947013850447],[80.34020508569175,7.057272555331676],[80.340318956818777,7.0571417485491299],[80.340381465876604,7.0569831994098218],[80.34043419408178,7.0569029240056107],[80.340429414384502,7.0568190939258706],[80.340470140317905,7.0567105800411385],[80.340568053928834,7.0566463063723193],[80.34073100069304,7.0565207517723598],[80.34084915348285,7.0564096245267107],[80.3409647020205,7.0563472751874512],[80.341062972113548,7.0562805234755688]]},"properties":{"OBJECTID":40,"Entity":"LWPolyline","Handle":"32DF6","Layer":"DN","LyrFrzn":0,"LyrOn":1,"Color":5,"Linetype":"Continuous","Elevation":-20.427,"LineWt":25,"RefName":"","DocUpdate":1783359710000,"DocId":1.1061215596273316e+19,"t0":null,"t00":null,"Shape_Length":999.12067003417087}},{"type":"Feature","id":41,"geometry":{"type":"LineString","coordinates":[[80.337280716912701,7.0611921410764005],[80.337283337503038,7.0611646098488103]]},"properties":{"OBJECTID":41,"Entity":"LWPolyline","Handle":"32E56","Layer":"DN","LyrFrzn":0,"LyrOn":1,"Color":5,"Linetype":"Continuous","Elevation":10.006000000000007,"LineWt":25,"RefName":"","DocUpdate":1783359710000,"DocId":1.1061215596273316e+19,"t0":null,"t00":null,"Shape_Length":3.0574215962968441}},{"type":"Feature","id":42,"geometry":{"type":"LineString","coordinates":[[80.337283049363762,7.0611374037400196],[80.337281276693346,7.0611105618590946],[80.337281836108573,7.0609783467708152],[80.337266106527991,7.0608653389582106],[80.337258509015385,7.060783268749125],[80.337260615273607,7.0607729419511243],[80.337285437062619,7.0606239821997532],[80.337267161047549,7.0604679601288156],[80.337285221608269,7.0603173083350939],[80.337293736291102,7.0602384449728648],[80.337283838514082,7.060131243511826],[80.33731929842601,7.0600654799038338],[80.337356297346005,7.0599998722485724],[80.337375969213028,7.0599703399786229],[80.337417226505025,7.0598963714145011],[80.337456106185343,7.0598516249981671],[80.337495874950619,7.0597992726999541],[80.337514928652183,7.059746004543495],[80.337561158327645,7.0596199960708752],[80.3375643237096,7.0596098245444026]]},"properties":{"OBJECTID":42,"Entity":"LWPolyline","Handle":"32E57","Layer":"DN","LyrFrzn":0,"LyrOn":1,"Color":4,"Linetype":"Continuous","Elevation":10.006000000000007,"LineWt":25,"RefName":"","DocUpdate":1783359710000,"DocId":1.1061215596273316e+19,"t0":null,"t00":null,"Shape_Length":177.939222044464}},{"type":"Feature","id":43,"geometry":{"type":"LineString","coordinates":[[80.33755894440371,7.0595723510632684],[80.337556083271949,7.0595532251291546],[80.337559850964695,7.0594633468227661],[80.337532856304293,7.0593831666891012]]},"properties":{"OBJECTID":43,"Entity":"LWPolyline","Handle":"32E58","Layer":"DN","LyrFrzn":0,"LyrOn":1,"Color":4,"Linetype":"Continuous","Elevation":10.006000000000007,"LineWt":25,"RefName":"","DocUpdate":1783359710000,"DocId":1.1061215596273316e+19,"t0":null,"t00":null,"Shape_Length":21.435260509753611}},{"type":"Feature","id":44,"geometry":{"type":"LineString","coordinates":[[80.337293422267393,7.0611906937777809],[80.337294665412813,7.0611627182757779]]},"properties":{"OBJECTID":44,"Entity":"LWPolyline","Handle":"32E59","Layer":"DN","LyrFrzn":0,"LyrOn":1,"Color":5,"Linetype":"Continuous","Elevation":10.056000000000004,"LineWt":25,"RefName":"","DocUpdate":1783359710000,"DocId":1.1061215596273316e+19,"t0":null,"t00":null,"Shape_Length":3.0958539068028159}},{"type":"Feature","id":45,"geometry":{"type":"LineString","coordinates":[[80.337294875287867,7.0611367674644221],[80.33729478070542,7.0611014361924669],[80.337296110217125,7.0609752464008686],[80.337281584750215,7.0608686805881726],[80.337284018072907,7.0607786918552202]]},"properties":{"OBJECTID":45,"Entity":"LWPolyline","Handle":"32E5A","Layer":"DN","LyrFrzn":0,"LyrOn":1,"Color":4,"Linetype":"Continuous","Elevation":10.056000000000004,"LineWt":25,"RefName":"","DocUpdate":1783359710000,"DocId":1.1061215596273316e+19,"t0":null,"t00":null,"Shape_Length":39.699884020721719}},{"type":"Feature","id":46,"geometry":{"type":"LineString","coordinates":[[80.337284048857697,7.0607786918989479],[80.337298982578019,7.0606257643784121],[80.337280241515487,7.0604701315016589],[80.337304617970588,7.0603159609909021],[80.337305525478243,7.0602317952937002],[80.337297298824694,7.0601330816494334],[80.33736550820565,7.0600362385934599],[80.337390837645515,7.0599822376382608],[80.337436503513288,7.0599343530791492],[80.337478714496314,7.0598900998402891],[80.337490859794315,7.0598749751670624],[80.337522398849487,7.0598221317782119],[80.337541362726512,7.059768356953346],[80.337571708801519,7.0596121144567663],[80.337571713883676,7.0596085415502445]]},"properties":{"OBJECTID":46,"Entity":"LWPolyline","Handle":"32E5B","Layer":"DN","LyrFrzn":0,"LyrOn":1,"Color":4,"Linetype":"Continuous","Elevation":13.594999999999992,"LineWt":25,"RefName":"","DocUpdate":1783359710000,"DocId":1.1061215596273316e+19,"t0":null,"t00":null,"Shape_Length":138.82151307904908}},{"type":"Feature","id":47,"geometry":{"type":"LineString","coordinates":[[80.337567693408644,7.0595705905945341],[80.337573863660239,7.0595548785333015],[80.337574888804312,7.0595089115135883],[80.337569776042116,7.0594622827062885],[80.337541232855244,7.0593835385855872],[80.337523834643378,7.0593563705966806],[80.337472615719548,7.0592763912493917]]},"properties":{"OBJECTID":47,"Entity":"LWPolyline","Handle":"32E5C","Layer":"DN","LyrFrzn":0,"LyrOn":1,"Color":4,"Linetype":"Continuous","Elevation":13.594999999999992,"LineWt":25,"RefName":"","DocUpdate":1783359710000,"DocId":1.1061215596273316e+19,"t0":null,"t00":null,"Shape_Length":35.455911467925262}},{"type":"Feature","id":48,"geometry":{"type":"LineString","coordinates":[[80.342532821806472,7.0514257970974477],[80.342673867002816,7.0515678811466183]]},"properties":{"OBJECTID":48,"Entity":"LWPolyline","Handle":"32E5D","Layer":"DN","LyrFrzn":0,"LyrOn":1,"Color":8,"Linetype":"Continuous","Elevation":-63.990000000000002,"LineWt":25,"RefName":"","DocUpdate":1783359710000,"DocId":1.1061215596273316e+19,"t0":null,"t00":null,"Shape_Length":22.122626335507803}},{"type":"Feature","id":49,"geometry":{"type":"LineString","coordinates":[[80.342515515463106,7.051434890466922],[80.342669997512132,7.0515766768404262]]},"properties":{"OBJECTID":49,"Entity":"LWPolyline","Handle":"32E5E","Layer":"DN","LyrFrzn":0,"LyrOn":1,"Color":8,"Linetype":"Continuous","Elevation":-63.990000000000002,"LineWt":25,"RefName":"","DocUpdate":1783359710000,"DocId":1.1061215596273316e+19,"t0":null,"t00":null,"Shape_Length":23.169308513849053}},{"type":"Feature","id":50,"geometry":{"type":"LineString","coordinates":[[80.342543752700578,7.0520333714251695],[80.342550740455849,7.0520419200826536],[80.342564700586678,7.0520622194341946]]},"properties":{"OBJECTID":50,"Entity":"LWPolyline","Handle":"32E5F","Layer":"DN","LyrFrzn":0,"LyrOn":1,"Color":8,"Linetype":"Continuous","Elevation":-63.990000000000002,"LineWt":25,"RefName":"","DocUpdate":1783359710000,"DocId":1.1061215596273316e+19,"t0":null,"t00":null,"Shape_Length":3.9429626221013812}},{"type":"Feature","id":51,"geometry":{"type":"LineString","coordinates":[[80.342549629387776,7.0520278774020166],[80.342555779077244,7.0520387432064267],[80.342570210664064,7.0520585909532203]]},"properties":{"OBJECTID":51,"Entity":"LWPolyline","Handle":"32E60","Layer":"DN","LyrFrzn":0,"LyrOn":1,"Color":8,"Linetype":"Continuous","Elevation":-63.990000000000002,"LineWt":25,"RefName":"","DocUpdate":1783359710000,"DocId":1.1061215596273316e+19,"t0":null,"t00":null,"Shape_Length":4.0920406921807295}},{"type":"Feature","id":52,"geometry":{"type":"LineString","coordinates":[[80.342228943294529,7.0521841305165873],[80.342213579637928,7.0521960125786611],[80.342204378536721,7.0522166954104959],[80.342216629881648,7.0522416597719779],[80.342223676034493,7.0522659293558707],[80.342219516581238,7.0522941269380626]]},"properties":{"OBJECTID":52,"Entity":"LWPolyline","Handle":"32E61","Layer":"DN","LyrFrzn":0,"LyrOn":1,"Color":8,"Linetype":"Continuous","Elevation":63.106000000000002,"LineWt":25,"RefName":"","DocUpdate":1783359710000,"DocId":1.1061215596273316e+19,"t0":null,"t00":null,"Shape_Length":13.66658577967522}},{"type":"Feature","id":53,"geometry":{"type":"LineString","coordinates":[[80.342276408982798,7.0523542836333579],[80.342349539197173,7.0523810912249125],[80.342367357914853,7.052393915500093]]},"properties":{"OBJECTID":53,"Entity":"LWPolyline","Handle":"32E62","Layer":"DN","LyrFrzn":0,"LyrOn":1,"Color":8,"Linetype":"Continuous","Elevation":61.82200000000001,"LineWt":25,"RefName":"","DocUpdate":1783359710000,"DocId":1.1061215596273316e+19,"t0":null,"t00":null,"Shape_Length":11.029017748408593}},{"type":"Feature","id":54,"geometry":{"type":"LineString","coordinates":[[80.342277297712144,7.0523507128711849],[80.342355024899092,7.0523754908236853],[80.342371352766932,7.0523797018146093]]},"properties":{"OBJECTID":54,"Entity":"LWPolyline","Handle":"32E63","Layer":"DN","LyrFrzn":0,"LyrOn":1,"Color":8,"Linetype":"Continuous","Elevation":61.788999999999994,"LineWt":25,"RefName":"","DocUpdate":1783359710000,"DocId":1.1061215596273316e+19,"t0":null,"t00":null,"Shape_Length":10.873569051691309}},{"type":"Feature","id":55,"geometry":{"type":"LineString","coordinates":[[80.342157969327985,7.0526446837238952],[80.342133645171131,7.0526992110884361],[80.342126199370469,7.0527207466533657]]},"properties":{"OBJECTID":55,"Entity":"LWPolyline","Handle":"32E76","Layer":"DN","LyrFrzn":0,"LyrOn":1,"Color":8,"Linetype":"Continuous","Elevation":62.79399999999999,"LineWt":25,"RefName":"","DocUpdate":1783359710000,"DocId":1.1061215596273316e+19,"t0":null,"t00":null,"Shape_Length":9.118616418105816}},{"type":"Feature","id":56,"geometry":{"type":"LineString","coordinates":[[80.342115681918756,7.0527631364961483],[80.342107823845225,7.0528009259951023],[80.342090071738639,7.0528563761942866]]},"properties":{"OBJECTID":56,"Entity":"LWPolyline","Handle":"32E77","Layer":"DN","LyrFrzn":0,"LyrOn":1,"Color":8,"Linetype":"Continuous","Elevation":62.923999999999999,"LineWt":25,"RefName":"","DocUpdate":1783359710000,"DocId":1.1061215596273316e+19,"t0":null,"t00":null,"Shape_Length":10.703123468625126}},{"type":"Feature","id":57,"geometry":{"type":"LineString","coordinates":[[80.341617899627423,7.053736918955404],[80.341594585447666,7.0537686172121505],[80.341582897649346,7.0537933850221721],[80.341564310078752,7.0538376901278736]]},"properties":{"OBJECTID":57,"Entity":"LWPolyline","Handle":"32E78","Layer":"DN","LyrFrzn":0,"LyrOn":1,"Color":8,"Linetype":"Continuous","Elevation":66.183999999999997,"LineWt":25,"RefName":"","DocUpdate":1783359710000,"DocId":1.1061215596273316e+19,"t0":null,"t00":null,"Shape_Length":12.686802944968921}},{"type":"Feature","id":58,"geometry":{"type":"LineString","coordinates":[[80.341556476709073,7.0538323061393893],[80.34155294086014,7.0539061293862213]]},"properties":{"OBJECTID":58,"Entity":"LWPolyline","Handle":"32E79","Layer":"DN","LyrFrzn":0,"LyrOn":1,"Color":8,"Linetype":"Continuous","Elevation":66.576999999999998,"LineWt":25,"RefName":"","DocUpdate":1783359710000,"DocId":1.1061215596273316e+19,"t0":null,"t00":null,"Shape_Length":8.1707946374618263}},{"type":"Feature","id":59,"geometry":{"type":"LineString","coordinates":[[80.341709085458973,7.0538647408552908],[80.341614310583083,7.0538355897344927]]},"properties":{"OBJECTID":59,"Entity":"LWPolyline","Handle":"32E7A","Layer":"DN","LyrFrzn":0,"LyrOn":1,"Color":8,"Linetype":"Continuous","Elevation":53.458999999999996,"LineWt":25,"RefName":"","DocUpdate":1783359710000,"DocId":1.1061215596273316e+19,"t0":null,"t00":null,"Shape_Length":10.95235353671012}},{"type":"Feature","id":60,"geometry":{"type":"LineString","coordinates":[[80.341715013746253,7.0538342753913703],[80.341629920232506,7.0538034464382804]]},"properties":{"OBJECTID":60,"Entity":"LWPolyline","Handle":"32E7B","Layer":"DN","LyrFrzn":0,"LyrOn":1,"Color":8,"Linetype":"Continuous","Elevation":53.651000000000003,"LineWt":25,"RefName":"","DocUpdate":1783359710000,"DocId":1.1061215596273316e+19,"t0":null,"t00":null,"Shape_Length":9.997121285435302}},{"type":"Feature","id":61,"geometry":{"type":"LineString","coordinates":[[80.34148067926688,7.0537520845082868],[80.341327039016704,7.0536935795396909]]},"properties":{"OBJECTID":61,"Entity":"LWPolyline","Handle":"32E7C","Layer":"DN","LyrFrzn":0,"LyrOn":1,"Color":8,"Linetype":"Continuous","Elevation":65.060000000000002,"LineWt":25,"RefName":"","DocUpdate":1783359710000,"DocId":1.1061215596273316e+19,"t0":null,"t00":null,"Shape_Length":18.159780285173504}},{"type":"Feature","id":62,"geometry":{"type":"LineString","coordinates":[[80.341319488382283,7.0537123741940206],[80.341464079517678,7.0537736614217774]]},"properties":{"OBJECTID":62,"Entity":"LWPolyline","Handle":"32E7D","Layer":"DN","LyrFrzn":0,"LyrOn":1,"Color":8,"Linetype":"Continuous","Elevation":71.222999999999985,"LineWt":25,"RefName":"","DocUpdate":1783359710000,"DocId":1.1061215596273316e+19,"t0":null,"t00":null,"Shape_Length":17.347375882700227}},{"type":"Feature","id":63,"geometry":{"type":"LineString","coordinates":[[80.341542926617137,7.0547073876524564],[80.341542327438319,7.0545867596936906],[80.341541870087923,7.0545330069959045]]},"properties":{"OBJECTID":63,"Entity":"LWPolyline","Handle":"32E80","Layer":"DN","LyrFrzn":0,"LyrOn":1,"Color":8,"Linetype":"Continuous","Elevation":64.200999999999993,"LineWt":25,"RefName":"","DocUpdate":1783359710000,"DocId":1.1061215596273316e+19,"t0":null,"t00":null,"Shape_Length":19.278862776007291}},{"type":"Feature","id":64,"geometry":{"type":"LineString","coordinates":[[80.341559959511812,7.0547060928570362],[80.341554418421552,7.0545906572025014],[80.341554816555231,7.0545062437488371]]},"properties":{"OBJECTID":64,"Entity":"LWPolyline","Handle":"32E81","Layer":"DN","LyrFrzn":0,"LyrOn":1,"Color":8,"Linetype":"Continuous","Elevation":64.200999999999993,"LineWt":25,"RefName":"","DocUpdate":1783359710000,"DocId":1.1061215596273316e+19,"t0":null,"t00":null,"Shape_Length":22.108892650082041}},{"type":"Feature","id":65,"geometry":{"type":"LineString","coordinates":[[80.340820215170993,7.0549892995710515],[80.340795798170504,7.0549684336393117]]},"properties":{"OBJECTID":65,"Entity":"LWPolyline","Handle":"32E82","Layer":"DN","LyrFrzn":0,"LyrOn":1,"Color":8,"Linetype":"Continuous","Elevation":68.757999999999981,"LineWt":25,"RefName":"","DocUpdate":1783359710000,"DocId":1.1061215596273316e+19,"t0":null,"t00":null,"Shape_Length":3.5487757053246565}},{"type":"Feature","id":66,"geometry":{"type":"LineString","coordinates":[[80.340779093323292,7.0549746423077471],[80.340789319683381,7.0549781482537339],[80.340802654895711,7.0549857651813186],[80.34081725533612,7.0549950572860913]]},"properties":{"OBJECTID":66,"Entity":"LWPolyline","Handle":"32E83","Layer":"DN","LyrFrzn":0,"LyrOn":1,"Color":8,"Linetype":"Continuous","Elevation":71.311000000000007,"LineWt":25,"RefName":"","DocUpdate":1783359710000,"DocId":1.1061215596273316e+19,"t0":null,"t00":null,"Shape_Length":4.8026249672402948}},{"type":"Feature","id":67,"geometry":{"type":"LineString","coordinates":[[80.337436746432829,7.0580960395665286],[80.337435317277908,7.0581014014311876],[80.337420072249401,7.058150604592166],[80.337427395873391,7.0581642644243283],[80.337452941652018,7.0582827224308327],[80.33740094852233,7.058348625412421],[80.337289259917881,7.0585929174482693],[80.337336935041662,7.0587746067496724],[80.337351121678353,7.0588583958900806],[80.337359016012783,7.0589482274356294],[80.337359475957342,7.0589622393375091]]},"properties":{"OBJECTID":67,"Entity":"LWPolyline","Handle":"32E8B","Layer":"DN","LyrFrzn":0,"LyrOn":1,"Color":4,"Linetype":"Continuous","Elevation":76.877999999999986,"LineWt":25,"RefName":"","DocUpdate":1783359710000,"DocId":1.1061215596273316e+19,"t0":null,"t00":null,"Shape_Length":102.06458746667926}},{"type":"Feature","id":68,"geometry":{"type":"LineString","coordinates":[[80.337441961195836,7.0580964087833458],[80.337440560533722,7.0581644911559636],[80.337465521282184,7.058286855923428],[80.337417379138628,7.0583761827884706],[80.337302299206584,7.0585921761543213],[80.337345814016828,7.058776944012342],[80.337356745373853,7.058857725473886],[80.337371492515388,7.0589484893755046],[80.337372922585004,7.0589615800290826]]},"properties":{"OBJECTID":68,"Entity":"LWPolyline","Handle":"32E8C","Layer":"DN","LyrFrzn":0,"LyrOn":1,"Color":4,"Linetype":"Continuous","Elevation":76.877999999999986,"LineWt":25,"RefName":"","DocUpdate":1783359710000,"DocId":1.1061215596273316e+19,"t0":null,"t00":null,"Shape_Length":101.21907398138183}},{"type":"Feature","id":69,"geometry":{"type":"LineString","coordinates":[[80.337361454109541,7.0590037603076983],[80.337366275557088,7.0590514813805676],[80.337369224499753,7.0591107054810838],[80.337384282509845,7.0592209878821306]]},"properties":{"OBJECTID":69,"Entity":"LWPolyline","Handle":"32E8D","Layer":"DN","LyrFrzn":0,"LyrOn":1,"Color":4,"Linetype":"Continuous","Elevation":60.422000000000004,"LineWt":25,"RefName":"","DocUpdate":1783359710000,"DocId":1.1061215596273316e+19,"t0":null,"t00":null,"Shape_Length":24.16321185091352}},{"type":"Feature","id":70,"geometry":{"type":"LineString","coordinates":[[80.337375633777896,7.0590033553099847],[80.337370777517421,7.0590119234074242],[80.337429507601186,7.0592053855475996]]},"properties":{"OBJECTID":70,"Entity":"LWPolyline","Handle":"32E8E","Layer":"DN","LyrFrzn":0,"LyrOn":1,"Color":4,"Linetype":"Continuous","Elevation":60.232000000000006,"LineWt":25,"RefName":"","DocUpdate":1783359710000,"DocId":1.1061215596273316e+19,"t0":null,"t00":null,"Shape_Length":23.438528147495415}},{"type":"Feature","id":71,"geometry":{"type":"LineString","coordinates":[[80.337436234059993,7.0580615941404989],[80.337443059417197,7.0579926963412758],[80.337449362160456,7.0579411106026972],[80.337425276087373,7.0578021850374943],[80.337408579215591,7.0576881084966256],[80.337397641650355,7.0575989600749036],[80.337395259886762,7.0574910818297685],[80.337395659571598,7.0574710740791913],[80.337399398857755,7.0574584430309253],[80.337344336144213,7.0572953857182608],[80.337336843575969,7.0572604690695044],[80.33732466087983,7.0569263797993802]]},"properties":{"OBJECTID":71,"Entity":"LWPolyline","Handle":"32E8F","Layer":"DN","LyrFrzn":0,"LyrOn":1,"Color":4,"Linetype":"Continuous","Elevation":77.699999999999989,"LineWt":25,"RefName":"","DocUpdate":1783359710000,"DocId":1.1061215596273316e+19,"t0":null,"t00":null,"Shape_Length":127.19220172048352}},{"type":"Feature","id":72,"geometry":{"type":"LineString","coordinates":[[80.3374386332504,7.0593029182435076],[80.337461031308393,7.0593045962979559],[80.337532856304293,7.0593831666891012]]},"properties":{"OBJECTID":72,"Entity":"LWPolyline","Handle":"32E9C","Layer":"DN","LyrFrzn":0,"LyrOn":1,"Color":4,"Linetype":"Continuous","Elevation":46.877000000000002,"LineWt":25,"RefName":"","DocUpdate":1783359710000,"DocId":1.1061215596273316e+19,"t0":null,"t00":null,"Shape_Length":14.244130888341724}},{"type":"Feature","id":73,"geometry":{"type":"LineString","coordinates":[[80.336753400658125,7.0604599214525621],[80.336735490508133,7.0605302778562082],[80.336712856667347,7.0607004429723519],[80.33667595128766,7.0608337551325446],[80.336627218400224,7.0608353411428597],[80.336577593540952,7.0608465410856533],[80.336604289917872,7.0609262866614433],[80.336610408988491,7.060940179972933]]},"properties":{"OBJECTID":73,"Entity":"LWPolyline","Handle":"32E9E","Layer":"DN","LyrFrzn":0,"LyrOn":1,"Color":4,"Linetype":"Continuous","Elevation":14.103999999999992,"LineWt":25,"RefName":"","DocUpdate":1783359710000,"DocId":1.1061215596273316e+19,"t0":null,"t00":null,"Shape_Length":64.273291158582012}},{"type":"Feature","id":74,"geometry":{"type":"LineString","coordinates":[[80.336593395034669,7.0609788608283806],[80.336591196954004,7.0609900739354714]]},"properties":{"OBJECTID":74,"Entity":"LWPolyline","Handle":"32E9F","Layer":"DN","LyrFrzn":0,"LyrOn":1,"Color":4,"Linetype":"Continuous","Elevation":9.7749999999999986,"LineWt":25,"RefName":"","DocUpdate":1783359710000,"DocId":1.1061215596273316e+19,"t0":null,"t00":null,"Shape_Length":1.2632026760346355}},{"type":"Feature","id":75,"geometry":{"type":"LineString","coordinates":[[80.341119026145265,7.0562364702844267],[80.341165544004937,7.0562258443197843],[80.341231588475097,7.056198475808765],[80.341304183578899,7.0562000254978825],[80.341456918812284,7.056201145506396],[80.34158359649139,7.0561441122804229],[80.341826097948996,7.0560566382463934]]},"properties":{"OBJECTID":75,"Entity":"LWPolyline","Handle":"33130","Layer":"DN","LyrFrzn":0,"LyrOn":1,"Color":5,"Linetype":"Continuous","Elevation":-20.427,"LineWt":25,"RefName":"","DocUpdate":1783359710000,"DocId":1.1061215596273316e+19,"t0":null,"t00":null,"Shape_Length":81.877641509433573}},{"type":"Feature","id":76,"geometry":{"type":"LineString","coordinates":[[80.350778286051352,7.0643816313441414],[80.35088417992948,7.0644192175564982],[80.35094963876351,7.0644747115790487],[80.351014696828045,7.0645124399232735],[80.351065906199608,7.0645338582703747],[80.35117069529629,7.0645521038770616],[80.351300289124225,7.0645606059192394],[80.351327758966008,7.0645609751929808]]},"properties":{"OBJECTID":76,"Entity":"LWPolyline","Handle":"3C9CF","Layer":"DN","LyrFrzn":0,"LyrOn":1,"Color":4,"Linetype":"Continuous","Elevation":18.827999999999996,"LineWt":25,"RefName":"","DocUpdate":1783359710000,"DocId":1.1061215596273316e+19,"t0":null,"t00":null,"Shape_Length":65.458065942880253}},{"type":"Feature","id":77,"geometry":{"type":"LineString","coordinates":[[80.351299769466365,7.0645696505698519],[80.351414701841705,7.0645602947077348],[80.351529036611623,7.0645379488288711],[80.3516847955391,7.0645481243623252],[80.351705223552742,7.0646123116021737],[80.351779705804702,7.0646901963199458],[80.351881763848112,7.0648295826759293],[80.352160064348226,7.0648931061268572],[80.352244887057225,7.0649188676050683],[80.352405824611637,7.0649555711446332],[80.352571885028254,7.064961174697256],[80.352704799197554,7.0649391618735606],[80.35280933441922,7.0649076626323062]]},"properties":{"OBJECTID":77,"Entity":"LWPolyline","Handle":"3C9D0","Layer":"DN","LyrFrzn":0,"LyrOn":1,"Color":4,"Linetype":"Continuous","Elevation":18.827999999999996,"LineWt":25,"RefName":"","DocUpdate":1783359710000,"DocId":1.1061215596273316e+19,"t0":null,"t00":null,"Shape_Length":186.1287838846817}},{"type":"Feature","id":78,"geometry":{"type":"LineString","coordinates":[[80.351301177757676,7.0645531809037694],[80.351410643322893,7.0645488195289561],[80.351526540475305,7.0645098775623678],[80.351697307576188,7.0645425155348116],[80.351717949697814,7.0646090005969793],[80.351786880264328,7.0646813146902696],[80.351887510100596,7.0648124768143017],[80.352168194922996,7.0648608344798633],[80.352277553391389,7.0648944452432074],[80.352415743930635,7.0649327001211883],[80.352571518886108,7.0649249745957601],[80.352742752150832,7.0648895463985513],[80.352809388162498,7.0648690190514447]]},"properties":{"OBJECTID":78,"Entity":"LWPolyline","Handle":"3C9D1","Layer":"DN","LyrFrzn":0,"LyrOn":1,"Color":4,"Linetype":"Continuous","Elevation":-63.990000000000002,"LineWt":25,"RefName":"","DocUpdate":1783359710000,"DocId":1.1061215596273316e+19,"t0":null,"t00":null,"Shape_Length":185.98131107574079}},{"type":"Feature","id":79,"geometry":{"type":"LineString","coordinates":[[80.343417372205025,7.0508661652031064],[80.343381981924324,7.0508836453829602],[80.343348915312632,7.0509098666481682],[80.343314837620383,7.0509403920831186],[80.343282687150577,7.0509718518967066],[80.343253124157314,7.0510047445125688]]},"properties":{"OBJECTID":79,"Entity":"LWPolyline","Handle":"3C9D4","Layer":"DN","LyrFrzn":0,"LyrOn":1,"Color":8,"Linetype":"Continuous","Elevation":-63.990000000000002,"LineWt":25,"RefName":"","DocUpdate":1783359710000,"DocId":1.1061215596273316e+19,"t0":null,"t00":null,"Shape_Length":23.935862958250631}},{"type":"Feature","id":80,"geometry":{"type":"LineString","coordinates":[[80.34305826891763,7.0511718097950045],[80.343030432691606,7.0511872382239691],[80.343003637095265,7.0512030932466701],[80.342977396593383,7.0512169681135868],[80.34295868507887,7.0512209036674278],[80.342946507455778,7.051227136887074]]},"properties":{"OBJECTID":80,"Entity":"LWPolyline","Handle":"3C9D5","Layer":"DN","LyrFrzn":0,"LyrOn":1,"Color":8,"Linetype":"Continuous","Elevation":-63.990000000000002,"LineWt":25,"RefName":"","DocUpdate":1783359710000,"DocId":1.1061215596273316e+19,"t0":null,"t00":null,"Shape_Length":13.85768175993411}},{"type":"Feature","id":81,"geometry":{"type":"LineString","coordinates":[[80.359702742037214,7.0481845472050697],[80.359697536638649,7.0481833433680574],[80.359590540696658,7.0481603661971572],[80.359520068778224,7.0481450001002379],[80.359394776431401,7.0481146032035085],[80.359255248353634,7.048086761982308],[80.359071085352468,7.0481028771120577],[80.358937334895629,7.0481177669213091],[80.358799507648484,7.0481067459981039],[80.358619359871383,7.0481283398231769]]},"properties":{"OBJECTID":81,"Entity":"LWPolyline","Handle":"D6093","Layer":"DN","LyrFrzn":0,"LyrOn":1,"Color":5,"Linetype":"Continuous","Elevation":-1.9030000000000058,"LineWt":25,"RefName":"","DocUpdate":1783359710000,"DocId":1.1061215596273316e+19,"t0":null,"t00":null,"Shape_Length":121.19142254983115}},{"type":"Feature","id":82,"geometry":{"type":"LineString","coordinates":[[80.358594730362739,7.0479692572695205],[80.358658328798143,7.0479684508573675],[80.358787408735623,7.0479472229424074],[80.35895783840634,7.0479798048581586],[80.359126454075366,7.0479540830477445],[80.359222421969534,7.0479592637651285],[80.359292557483215,7.0479129941297014],[80.359406927277178,7.0478936137485029],[80.359511764285315,7.0479458607013976],[80.359702320297956,7.0480234644352695],[80.359742912587706,7.0480355133315751]]},"properties":{"OBJECTID":82,"Entity":"LWPolyline","Handle":"D6094","Layer":"DN","LyrFrzn":0,"LyrOn":1,"Color":5,"Linetype":"Continuous","Elevation":-20.427,"LineWt":25,"RefName":"","DocUpdate":1783359710000,"DocId":1.1061215596273316e+19,"t0":null,"t00":null,"Shape_Length":132.53098406133853}}]}